{"fetched_at":"2026-03-30T06:02:59Z","count":15439,"tles":[{"name":"STARLINK-5857","line1":"1 55946U 23037AJ  26087.85934481 -.00000113  00000+0 -16663-5 0  9992","line2":"2 55946  70.0001 236.0368 0002810 269.3909  90.6928 14.98330635166847","category":"Starlink"}]}