{
  "norad_id": 55946,
  "name": "STARLINK-5857",
  "history": [
    {
      "epoch": "2026-03-28T20:37:27.391584Z",
      "apogee_km": 574.0074174239171,
      "perigee_km": 570.1004370960663,
      "latitude_deg": 4.002561653433737e-06,
      "longitude_deg": 100.3989250433127,
      "height_km": 574.5019700239042,
      "semi_major_axis_km": 6950.190927259991,
      "eccentricity": 0.00028107,
      "inclination_deg": 70.0001,
      "raan_deg": 236.0368,
      "arg_perigee_deg": 269.3909,
      "mean_anomaly_deg": 90.6928,
      "mean_motion_rev_day": 14.98330635
    }
  ]
}